ATLAS CENTAUR R/B       
1 06155U 72065B   26054.03126613  .00001375  00000+0  19040-3 0  9998
2 06155  35.0024  31.6521 0034407 247.2048 112.5016 14.77640059839094
SL-8 R/B                
1 08459U 75112B   26054.10425685  .00000153  00000+0  58857-4 0  9995
2 08459  74.0599  45.7427 0014809 144.5941 215.6199 14.38194614629776
SL-3 R/B                
1 10114U 77057B   26054.14882503  .00015023  00000+0  31974-3 0  9998
2 10114  97.5756 225.4362 0006908 343.9137  16.1891 15.45038392666087
SEASAT 1                
1 10967U 78064A   26054.03905894  .00000231  00000+0  10312-3 0  9998
2 10967 108.0145  94.7551 0001937 291.1315  68.9623 14.46147959504392
SL-14 R/B               
1 11267U 79011B   26054.16034945  .00000524  00000+0  49194-4 0  9995
2 11267  82.5231 110.3596 0017612 105.1670 255.1499 14.91889611526615
SL-8 R/B                
1 11574U 79089B   26054.17998578  .00000239  00000+0  80122-4 0  9992
2 11574  74.0685 117.9042 0017013 292.1045  67.8305 14.42341072434018
SL-14 R/B               
1 11672U 80005B   26054.16381949  .00000607  00000+0  58949-4 0  9999
2 11672  82.5169 321.0125 0014886 207.0058 153.0388 14.90910814474328
SL-8 R/B                
1 12139U 81003B   26054.09666941  .00018066  00000+0  47225-3 0  9999
2 12139  82.9392 303.5121 0262686 229.3891 128.4227 15.10388710312477
SL-3 R/B                
1 12465U 81046B   26054.18177962  .00015754  00000+0  37111-3 0  9992
2 12465  81.2322 307.1585 0020624  70.5689 289.7780 15.41574037436197
SL-3 R/B                
1 12904U 81103B   26054.17028793  .00006357  00000+0  28350-3 0  9994
2 12904  81.1567 230.4634 0012906 338.5510  21.5178 15.21179781971026
SL-3 R/B                
1 13068U 82013B   26054.05304073  .00005485  00000+0  23872-3 0  9997
2 13068  81.1761 177.9193 0021942 227.6541 132.2833 15.21841996402123
SL-3 R/B                
1 13154U 82039B   26054.14501123  .00002767  00000+0  16723-3 0  9993
2 13154  81.1590 232.7289 0030007  11.9494 348.2436 15.09988440379446
