CCSDS_OMM_VERS = 2.0
CREATION_DATE  = 
ORIGINATOR     = 

OBJECT_NAME    = ATLAS CENTAUR R/B
OBJECT_ID      = 1972-065B
CENTER_NAME    = EARTH
REF_FRAME      = TEME
TIME_SYSTEM    = UTC
MEAN_ELEMENT_THEORY = SGP/SGP4

EPOCH          = 2026-02-23T00:45:01.393632
MEAN_MOTION    = 14.77640059
ECCENTRICITY   = .0034407
INCLINATION    = 35.0024
RA_OF_ASC_NODE = 31.6521
ARG_OF_PERICENTER = 247.2048
MEAN_ANOMALY   = 112.5016

EPHEMERIS_TYPE = 0
CLASSIFICATION_TYPE = U
NORAD_CAT_ID   = 6155
ELEMENT_SET_NO = 999
REV_AT_EPOCH   = 83909
BSTAR          = .1904E-3
MEAN_MOTION_DOT = .1375E-4
MEAN_MOTION_DDOT = 0

CCSDS_OMM_VERS = 2.0
CREATION_DATE  = 
ORIGINATOR     = 

OBJECT_NAME    = SL-8 R/B
OBJECT_ID      = 1975-112B
CENTER_NAME    = EARTH
REF_FRAME      = TEME
TIME_SYSTEM    = UTC
MEAN_ELEMENT_THEORY = SGP/SGP4

EPOCH          = 2026-02-23T02:30:07.791840
MEAN_MOTION    = 14.38194614
ECCENTRICITY   = .0014809
INCLINATION    = 74.0599
RA_OF_ASC_NODE = 45.7427
ARG_OF_PERICENTER = 144.5941
MEAN_ANOMALY   = 215.6199

EPHEMERIS_TYPE = 0
CLASSIFICATION_TYPE = U
NORAD_CAT_ID   = 8459
ELEMENT_SET_NO = 999
REV_AT_EPOCH   = 62977
BSTAR          = .58857E-4
MEAN_MOTION_DOT = .153E-5
MEAN_MOTION_DDOT = 0

CCSDS_OMM_VERS = 2.0
CREATION_DATE  = 
ORIGINATOR     = 

OBJECT_NAME    = SL-3 R/B
OBJECT_ID      = 1977-057B
CENTER_NAME    = EARTH
REF_FRAME      = TEME
TIME_SYSTEM    = UTC
MEAN_ELEMENT_THEORY = SGP/SGP4

EPOCH          = 2026-02-23T03:34:18.482592
MEAN_MOTION    = 15.45038392
ECCENTRICITY   = .0006908
INCLINATION    = 97.5756
RA_OF_ASC_NODE = 225.4362
ARG_OF_PERICENTER = 343.9137
MEAN_ANOMALY   = 16.1891

EPHEMERIS_TYPE = 0
CLASSIFICATION_TYPE = U
NORAD_CAT_ID   = 10114
ELEMENT_SET_NO = 999
REV_AT_EPOCH   = 66608
BSTAR          = .31974E-3
MEAN_MOTION_DOT = .15023E-3
MEAN_MOTION_DDOT = 0

CCSDS_OMM_VERS = 2.0
CREATION_DATE  = 
ORIGINATOR     = 

OBJECT_NAME    = SEASAT 1
OBJECT_ID      = 1978-064A
CENTER_NAME    = EARTH
REF_FRAME      = TEME
TIME_SYSTEM    = UTC
MEAN_ELEMENT_THEORY = SGP/SGP4

EPOCH          = 2026-02-23T00:56:14.692416
MEAN_MOTION    = 14.46147959
ECCENTRICITY   = .0001937
INCLINATION    = 108.0145
RA_OF_ASC_NODE = 94.7551
ARG_OF_PERICENTER = 291.1315
MEAN_ANOMALY   = 68.9623

EPHEMERIS_TYPE = 0
CLASSIFICATION_TYPE = U
NORAD_CAT_ID   = 10967
ELEMENT_SET_NO = 999
REV_AT_EPOCH   = 50439
BSTAR          = .10312E-3
MEAN_MOTION_DOT = .231E-5
MEAN_MOTION_DDOT = 0

CCSDS_OMM_VERS = 2.0
CREATION_DATE  = 
ORIGINATOR     = 

OBJECT_NAME    = SL-14 R/B
OBJECT_ID      = 1979-011B
CENTER_NAME    = EARTH
REF_FRAME      = TEME
TIME_SYSTEM    = UTC
MEAN_ELEMENT_THEORY = SGP/SGP4

EPOCH          = 2026-02-23T03:50:54.192480
MEAN_MOTION    = 14.91889611
ECCENTRICITY   = .0017612
INCLINATION    = 82.5231
RA_OF_ASC_NODE = 110.3596
ARG_OF_PERICENTER = 105.1670
MEAN_ANOMALY   = 255.1499

EPHEMERIS_TYPE = 0
CLASSIFICATION_TYPE = U
NORAD_CAT_ID   = 11267
ELEMENT_SET_NO = 999
REV_AT_EPOCH   = 52661
BSTAR          = .49194E-4
MEAN_MOTION_DOT = .524E-5
MEAN_MOTION_DDOT = 0

CCSDS_OMM_VERS = 2.0
CREATION_DATE  = 
ORIGINATOR     = 

OBJECT_NAME    = SL-8 R/B
OBJECT_ID      = 1979-089B
CENTER_NAME    = EARTH
REF_FRAME      = TEME
TIME_SYSTEM    = UTC
MEAN_ELEMENT_THEORY = SGP/SGP4

EPOCH          = 2026-02-23T04:19:10.771392
MEAN_MOTION    = 14.42341072
ECCENTRICITY   = .0017013
INCLINATION    = 74.0685
RA_OF_ASC_NODE = 117.9042
ARG_OF_PERICENTER = 292.1045
MEAN_ANOMALY   = 67.8305

EPHEMERIS_TYPE = 0
CLASSIFICATION_TYPE = U
NORAD_CAT_ID   = 11574
ELEMENT_SET_NO = 999
REV_AT_EPOCH   = 43401
BSTAR          = .80122E-4
MEAN_MOTION_DOT = .239E-5
MEAN_MOTION_DDOT = 0

CCSDS_OMM_VERS = 2.0
CREATION_DATE  = 
ORIGINATOR     = 

OBJECT_NAME    = SL-14 R/B
OBJECT_ID      = 1980-005B
CENTER_NAME    = EARTH
REF_FRAME      = TEME
TIME_SYSTEM    = UTC
MEAN_ELEMENT_THEORY = SGP/SGP4

EPOCH          = 2026-02-23T03:55:54.003936
MEAN_MOTION    = 14.90910814
ECCENTRICITY   = .0014886
INCLINATION    = 82.5169
RA_OF_ASC_NODE = 321.0125
ARG_OF_PERICENTER = 207.0058
MEAN_ANOMALY   = 153.0388

EPHEMERIS_TYPE = 0
CLASSIFICATION_TYPE = U
NORAD_CAT_ID   = 11672
ELEMENT_SET_NO = 999
REV_AT_EPOCH   = 47432
BSTAR          = .58949E-4
MEAN_MOTION_DOT = .607E-5
MEAN_MOTION_DDOT = 0

CCSDS_OMM_VERS = 2.0
CREATION_DATE  = 
ORIGINATOR     = 

OBJECT_NAME    = SL-8 R/B
OBJECT_ID      = 1981-003B
CENTER_NAME    = EARTH
REF_FRAME      = TEME
TIME_SYSTEM    = UTC
MEAN_ELEMENT_THEORY = SGP/SGP4

EPOCH          = 2026-02-23T02:19:12.237024
MEAN_MOTION    = 15.10388710
ECCENTRICITY   = .0262686
INCLINATION    = 82.9392
RA_OF_ASC_NODE = 303.5121
ARG_OF_PERICENTER = 229.3891
MEAN_ANOMALY   = 128.4227

EPHEMERIS_TYPE = 0
CLASSIFICATION_TYPE = U
NORAD_CAT_ID   = 12139
ELEMENT_SET_NO = 999
REV_AT_EPOCH   = 31247
BSTAR          = .47225E-3
MEAN_MOTION_DOT = .18066E-3
MEAN_MOTION_DDOT = 0

CCSDS_OMM_VERS = 2.0
CREATION_DATE  = 
ORIGINATOR     = 

OBJECT_NAME    = SL-3 R/B
OBJECT_ID      = 1981-046B
CENTER_NAME    = EARTH
REF_FRAME      = TEME
TIME_SYSTEM    = UTC
MEAN_ELEMENT_THEORY = SGP/SGP4

EPOCH          = 2026-02-23T04:21:45.759168
MEAN_MOTION    = 15.41574037
ECCENTRICITY   = .0020624
INCLINATION    = 81.2322
RA_OF_ASC_NODE = 307.1585
ARG_OF_PERICENTER = 70.5689
MEAN_ANOMALY   = 289.7780

EPHEMERIS_TYPE = 0
CLASSIFICATION_TYPE = U
NORAD_CAT_ID   = 12465
ELEMENT_SET_NO = 999
REV_AT_EPOCH   = 43619
BSTAR          = .37111E-3
MEAN_MOTION_DOT = .15754E-3
MEAN_MOTION_DDOT = 0

CCSDS_OMM_VERS = 2.0
CREATION_DATE  = 
ORIGINATOR     = 

OBJECT_NAME    = SL-3 R/B
OBJECT_ID      = 1981-103B
CENTER_NAME    = EARTH
REF_FRAME      = TEME
TIME_SYSTEM    = UTC
MEAN_ELEMENT_THEORY = SGP/SGP4

EPOCH          = 2026-02-23T04:05:12.877152
MEAN_MOTION    = 15.21179781
ECCENTRICITY   = .0012906
INCLINATION    = 81.1567
RA_OF_ASC_NODE = 230.4634
ARG_OF_PERICENTER = 338.5510
MEAN_ANOMALY   = 21.5178

EPHEMERIS_TYPE = 0
CLASSIFICATION_TYPE = U
NORAD_CAT_ID   = 12904
ELEMENT_SET_NO = 999
REV_AT_EPOCH   = 97102
BSTAR          = .2835E-3
MEAN_MOTION_DOT = .6357E-4
MEAN_MOTION_DDOT = 0

CCSDS_OMM_VERS = 2.0
CREATION_DATE  = 
ORIGINATOR     = 

OBJECT_NAME    = SL-3 R/B
OBJECT_ID      = 1982-013B
CENTER_NAME    = EARTH
REF_FRAME      = TEME
TIME_SYSTEM    = UTC
MEAN_ELEMENT_THEORY = SGP/SGP4

EPOCH          = 2026-02-23T01:16:22.719072
MEAN_MOTION    = 15.21841996
ECCENTRICITY   = .0021942
INCLINATION    = 81.1761
RA_OF_ASC_NODE = 177.9193
ARG_OF_PERICENTER = 227.6541
MEAN_ANOMALY   = 132.2833

EPHEMERIS_TYPE = 0
CLASSIFICATION_TYPE = U
NORAD_CAT_ID   = 13068
ELEMENT_SET_NO = 999
REV_AT_EPOCH   = 40212
BSTAR          = .23872E-3
MEAN_MOTION_DOT = .5485E-4
MEAN_MOTION_DDOT = 0

CCSDS_OMM_VERS = 2.0
CREATION_DATE  = 
ORIGINATOR     = 

OBJECT_NAME    = SL-3 R/B
OBJECT_ID      = 1982-039B
CENTER_NAME    = EARTH
REF_FRAME      = TEME
TIME_SYSTEM    = UTC
MEAN_ELEMENT_THEORY = SGP/SGP4

EPOCH          = 2026-02-23T03:28:48.970272
MEAN_MOTION    = 15.09988440
ECCENTRICITY   = .0030007
INCLINATION    = 81.1590
RA_OF_ASC_NODE = 232.7289
ARG_OF_PERICENTER = 11.9494
MEAN_ANOMALY   = 348.2436

EPHEMERIS_TYPE = 0
CLASSIFICATION_TYPE = U
NORAD_CAT_ID   = 13154
ELEMENT_SET_NO = 999
REV_AT_EPOCH   = 37944
BSTAR          = .16723E-3
MEAN_MOTION_DOT = .2767E-4
MEAN_MOTION_DDOT = 0

